{
  "type": "FeatureCollection",
  "features": [
    {
      "type": "Feature",
      "properties": {
        "norad_id": 35895,
        "name": "COSMOS 2251 DEB",
        "group": "cosmos-2251-debris",
        "lat": -13.349787121757904,
        "lon": 1.2565476704956169,
        "alt_km": 963.1664373529065,
        "timestamp": "2025-12-02T15:49:07.591266+00:00",
        "meta_object_name": "COSMOS 2251 DEB",
        "meta_object_id": "1993-036AUJ",
        "meta_epoch": "2025-11-28T10:48:22.739616",
        "meta_mean_motion": 14.01419981,
        "meta_eccentricity": 0.01996382,
        "meta_inclination": 74.0486,
        "meta_ra_of_asc_node": 12.4453,
        "meta_arg_of_pericenter": 114.4344,
        "meta_mean_anomaly": 247.7763,
        "meta_ephemeris_type": 0,
        "meta_classification_type": "U",
        "meta_norad_cat_id": 35895,
        "meta_element_set_no": 999,
        "meta_rev_at_epoch": 58812,
        "meta_bstar": 0.0013219318,
        "meta_mean_motion_dot": 2.352e-05,
        "meta_mean_motion_ddot": 0,
        "tle_line1": "1 35895U 93036AUJ 25332.45026319  .00002352  00000+0  13219-2 0  9995",
        "tle_line2": "2 35895  74.0486  12.4453 0199638 114.4344 247.7763 14.01419981588125"
      },
      "geometry": {
        "type": "Point",
        "coordinates": [
          1.2565476704956169,
          -13.349787121757904
        ]
      }
    },
    {
      "type": "Feature",
      "properties": {
        "norad_id": 35898,
        "name": "COSMOS 2251 DEB",
        "group": "cosmos-2251-debris",
        "lat": 69.7506372974209,
        "lon": 8.932426798462693,
        "alt_km": 527.5538576227927,
        "timestamp": "2025-12-02T15:49:07.591277+00:00",
        "meta_object_name": "COSMOS 2251 DEB",
        "meta_object_id": "1993-036AUM",
        "meta_epoch": "2025-12-01T05:48:44.726112",
        "meta_mean_motion": 14.94426348,
        "meta_eccentricity": 0.0079293,
        "meta_inclination": 73.9911,
        "meta_ra_of_asc_node": 320.6917,
        "meta_arg_of_pericenter": 107.3965,
        "meta_mean_anomaly": 270.638,
        "meta_ephemeris_type": 0,
        "meta_classification_type": "U",
        "meta_norad_cat_id": 35898,
        "meta_element_set_no": 999,
        "meta_rev_at_epoch": 66638,
        "meta_bstar": 0.00081015,
        "meta_mean_motion_dot": 9.266e-05,
        "meta_mean_motion_ddot": 0,
        "tle_line1": "1 35898U 93036AUM 25335.24218433  .00009266  00000+0  81015-3 0  9999",
        "tle_line2": "2 35898  73.9911 320.6917 0079293 107.3965 270.6380 14.94426348666384"
      },
      "geometry": {
        "type": "Point",
        "coordinates": [
          8.932426798462693,
          69.7506372974209
        ]
      }
    },
    {
      "type": "Feature",
      "properties": {
        "norad_id": 35901,
        "name": "COSMOS 2251 DEB",
        "group": "cosmos-2251-debris",
        "lat": 14.535191542632592,
        "lon": 47.85111797444046,
        "alt_km": 546.4560408080415,
        "timestamp": "2025-12-02T15:49:07.591287+00:00",
        "meta_object_name": "COSMOS 2251 DEB",
        "meta_object_id": "1993-036AUQ",
        "meta_epoch": "2025-12-01T12:55:02.152704",
        "meta_mean_motion": 15.05425838,
        "meta_eccentricity": 0.00058343,
        "meta_inclination": 74.0116,
        "meta_ra_of_asc_node": 45.8877,
        "meta_arg_of_pericenter": 13.0645,
        "meta_mean_anomaly": 49.8256,
        "meta_ephemeris_type": 0,
        "meta_classification_type": "U",
        "meta_norad_cat_id": 35901,
        "meta_element_set_no": 999,
        "meta_rev_at_epoch": 85958,
        "meta_bstar": 0.0032773073,
        "meta_mean_motion_dot": 0.00047347,
        "meta_mean_motion_ddot": 0,
        "tle_line1": "1 35901U 93036AUQ 25335.53821936  .00047347  00000+0  32773-2 0  9992",
        "tle_line2": "2 35901  74.0116  45.8877 0005834  13.0645  49.8256 15.05425838859587"
      },
      "geometry": {
        "type": "Point",
        "coordinates": [
          47.85111797444046,
          14.535191542632592
        ]
      }
    },
    {
      "type": "Feature",
      "properties": {
        "norad_id": 35902,
        "name": "COSMOS 2251 DEB",
        "group": "cosmos-2251-debris",
        "lat": -54.80960478294105,
        "lon": -131.15955413700203,
        "alt_km": 780.7732930179254,
        "timestamp": "2025-12-02T15:49:07.591297+00:00",
        "meta_object_name": "COSMOS 2251 DEB",
        "meta_object_id": "1993-036AUR",
        "meta_epoch": "2025-12-01T03:04:00.207552",
        "meta_mean_motion": 14.26791124,
        "meta_eccentricity": 0.01016301,
        "meta_inclination": 73.9836,
        "meta_ra_of_asc_node": 255.6555,
        "meta_arg_of_pericenter": 12.6385,
        "meta_mean_anomaly": 347.7274,
        "meta_ephemeris_type": 0,
        "meta_classification_type": "U",
        "meta_norad_cat_id": 35902,
        "meta_element_set_no": 999,
        "meta_rev_at_epoch": 60964,
        "meta_bstar": 0.0014097892,
        "meta_mean_motion_dot": 3.584e-05,
        "meta_mean_motion_ddot": 0,
        "tle_line1": "1 35902U 93036AUR 25335.12778018  .00003584  00000+0  14098-2 0  9995",
        "tle_line2": "2 35902  73.9836 255.6555 0101630  12.6385 347.7274 14.26791124609642"
      },
      "geometry": {
        "type": "Point",
        "coordinates": [
          -131.15955413700203,
          -54.80960478294105
        ]
      }
    },
    {
      "type": "Feature",
      "properties": {
        "norad_id": 35905,
        "name": "COSMOS 2251 DEB",
        "group": "cosmos-2251-debris",
        "lat": 16.217748305715446,
        "lon": 46.495793765806425,
        "alt_km": 626.0609323295948,
        "timestamp": "2025-12-02T15:49:07.591308+00:00",
        "meta_object_name": "COSMOS 2251 DEB",
        "meta_object_id": "1993-036AUU",
        "meta_epoch": "2025-12-02T02:16:20.919648",
        "meta_mean_motion": 14.98770936,
        "meta_eccentricity": 0.00910827,
        "meta_inclination": 74.0327,
        "meta_ra_of_asc_node": 232.4178,
        "meta_arg_of_pericenter": 314.9796,
        "meta_mean_anomaly": 44.4031,
        "meta_ephemeris_type": 0,
        "meta_classification_type": "U",
        "meta_norad_cat_id": 35905,
        "meta_element_set_no": 999,
        "meta_rev_at_epoch": 88423,
        "meta_bstar": 0.00066760641,
        "meta_mean_motion_dot": 8.736e-05,
        "meta_mean_motion_ddot": 0,
        "tle_line1": "1 35905U 93036AUU 25336.09468657  .00008736  00000+0  66761-3 0  9999",
        "tle_line2": "2 35905  74.0327 232.4178 0091082 314.9796  44.4031 14.98770936884238"
      },
      "geometry": {
        "type": "Point",
        "coordinates": [
          46.495793765806425,
          16.217748305715446
        ]
      }
    },
    {
      "type": "Feature",
      "properties": {
        "norad_id": 35959,
        "name": "COSMOS 2251 DEB",
        "group": "cosmos-2251-debris",
        "lat": 52.54869215353658,
        "lon": 128.57056527680066,
        "alt_km": 767.4781202310096,
        "timestamp": "2025-12-02T15:49:07.591318+00:00",
        "meta_object_name": "COSMOS 2251 DEB",
        "meta_object_id": "1993-036AUZ",
        "meta_epoch": "2025-11-30T16:21:59.984064",
        "meta_mean_motion": 14.34121846,
        "meta_eccentricity": 0.00211433,
        "meta_inclination": 74.0322,
        "meta_ra_of_asc_node": 334.1387,
        "meta_arg_of_pericenter": 58.5028,
        "meta_mean_anomaly": 301.8186,
        "meta_ephemeris_type": 0,
        "meta_classification_type": "U",
        "meta_norad_cat_id": 35959,
        "meta_element_set_no": 999,
        "meta_rev_at_epoch": 84755,
        "meta_bstar": 0.00012517594,
        "meta_mean_motion_dot": 3.25e-06,
        "meta_mean_motion_ddot": 0,
        "tle_line1": "1 35959U 93036AUZ 25334.68194426  .00000325  00000+0  12518-3 0  9998",
        "tle_line2": "2 35959  74.0322 334.1387 0021143  58.5028 301.8186 14.34121846847559"
      },
      "geometry": {
        "type": "Point",
        "coordinates": [
          128.57056527680066,
          52.54869215353658
        ]
      }
    },
    {
      "type": "Feature",
      "properties": {
        "norad_id": 35961,
        "name": "COSMOS 2251 DEB",
        "group": "cosmos-2251-debris",
        "lat": 16.119998461105023,
        "lon": -133.31162164760784,
        "alt_km": 982.5296562542171,
        "timestamp": "2025-12-02T15:49:07.591328+00:00",
        "meta_object_name": "COSMOS 2251 DEB",
        "meta_object_id": "1993-036AVB",
        "meta_epoch": "2025-11-29T09:08:47.173056",
        "meta_mean_motion": 14.05319505,
        "meta_eccentricity": 0.01924432,
        "meta_inclination": 73.9254,
        "meta_ra_of_asc_node": 227.671,
        "meta_arg_of_pericenter": 163.9834,
        "meta_mean_anomaly": 196.7506,
        "meta_ephemeris_type": 0,
        "meta_classification_type": "U",
        "meta_norad_cat_id": 35961,
        "meta_element_set_no": 999,
        "meta_rev_at_epoch": 62494,
        "meta_bstar": 0.00062484461,
        "meta_mean_motion_dot": 1.171e-05,
        "meta_mean_motion_ddot": 0,
        "tle_line1": "1 35961U 93036AVB 25333.38110154  .00001171  00000+0  62484-3 0  9990",
        "tle_line2": "2 35961  73.9254 227.6710 0192443 163.9834 196.7506 14.05319505624940"
      },
      "geometry": {
        "type": "Point",
        "coordinates": [
          -133.31162164760784,
          16.119998461105023
        ]
      }
    }
  ]
}